{
  "norad_id": 53757,
  "name": "CENTISPACE-1 S3",
  "history": [
    {
      "epoch": "2026-03-28T21:41:36.605760Z",
      "apogee_km": 696.9193084580775,
      "perigee_km": 681.9607816422276,
      "latitude_deg": 7.656959637101802e-06,
      "longitude_deg": -124.50677475262994,
      "height_km": 694.6523651937495,
      "semi_major_axis_km": 7067.577045050152,
      "eccentricity": 0.00105825,
      "inclination_deg": 53.5343,
      "raan_deg": 27.2134,
      "arg_perigee_deg": 125.2494,
      "mean_anomaly_deg": 234.9473,
      "mean_motion_rev_day": 14.61157174
    },
    {
      "epoch": "2026-03-29T04:15:37.103328Z",
      "apogee_km": 696.9096854084137,
      "perigee_km": 681.9617690902815,
      "latitude_deg": -2.322816456042059e-05,
      "longitude_deg": 135.59024030425522,
      "height_km": 694.7136005996758,
      "semi_major_axis_km": 7067.572727249348,
      "eccentricity": 0.0010575,
      "inclination_deg": 53.5343,
      "raan_deg": 26.0822,
      "arg_perigee_deg": 125.8943,
      "mean_anomaly_deg": 234.3015,
      "mean_motion_rev_day": 14.61158513
    },
    {
      "epoch": "2026-03-30T04:53:08.957760Z",
      "apogee_km": 696.8749267634184,
      "perigee_km": 681.9835646836791,
      "latitude_deg": -3.213944015077851e-05,
      "longitude_deg": 120.95417363742189,
      "height_km": 694.9380042550654,
      "semi_major_axis_km": 7067.5662457235485,
      "eccentricity": 0.0010535,
      "inclination_deg": 53.5344,
      "raan_deg": 21.8402,
      "arg_perigee_deg": 128.2746,
      "mean_anomaly_deg": 231.9178,
      "mean_motion_rev_day": 14.61160523
    },
    {
      "epoch": "2026-03-30T04:53:08.958624Z",
      "apogee_km": 696.8747854120929,
      "perigee_km": 681.9837060350037,
      "latitude_deg": -3.0682660943550936e-05,
      "longitude_deg": 120.9541710983806,
      "height_km": 694.9379166983688,
      "semi_major_axis_km": 7067.5662457235485,
      "eccentricity": 0.00105348,
      "inclination_deg": 53.5344,
      "raan_deg": 21.8402,
      "arg_perigee_deg": 128.2746,
      "mean_anomaly_deg": 231.9178,
      "mean_motion_rev_day": 14.61160523
    },
    {
      "epoch": "2026-03-30T09:48:39.309984Z",
      "apogee_km": 696.8723888719705,
      "perigee_km": 681.9834325771444,
      "latitude_deg": -1.5253954248413553e-05,
      "longitude_deg": 46.02705210537998,
      "height_km": 694.983113980854,
      "semi_major_axis_km": 7067.564910724557,
      "eccentricity": 0.00105333,
      "inclination_deg": 53.5345,
      "raan_deg": 20.9918,
      "arg_perigee_deg": 128.7374,
      "mean_anomaly_deg": 231.4544,
      "mean_motion_rev_day": 14.61160937
    },
    {
      "epoch": "2026-03-30T21:18:10.101888Z",
      "apogee_km": 696.8594592559675,
      "perigee_km": 681.9900161160504,
      "latitude_deg": 6.754606268979692e-06,
      "longitude_deg": -128.80298577787045,
      "height_km": 695.0876855540862,
      "semi_major_axis_km": 7067.561737686009,
      "eccentricity": 0.00105195,
      "inclination_deg": 53.5345,
      "raan_deg": 19.012,
      "arg_perigee_deg": 129.868,
      "mean_anomaly_deg": 230.3222,
      "mean_motion_rev_day": 14.61161921
    },
    {
      "epoch": "2026-03-31T20:17:11.622624Z",
      "apogee_km": 696.8266643359038,
      "perigee_km": 682.0088290539834,
      "latitude_deg": -1.592142342925052e-05,
      "longitude_deg": -118.4625468380956,
      "height_km": 695.2818331933915,
      "semi_major_axis_km": 7067.554746694944,
      "eccentricity": 0.0010483,
      "inclination_deg": 53.5346,
      "raan_deg": 15.0527,
      "arg_perigee_deg": 132.0908,
      "mean_anomaly_deg": 228.096,
      "mean_motion_rev_day": 14.61164089
    }
  ]
}